0 FENGYUN 1C DEB
1 38494U 99025ESD 13281.32612620  .00002408  00000-0  13001-2 0   802
2 38494 098.4334 319.3581 0526660 126.0528 299.3607 13.59866204152569
0 FENGYUN 1C DEB
1 38494U 99025ESD 13281.92598731  .00003621  00000-0  19455-2 0   812
2 38494 098.4333 319.8780 0526606 124.4757 355.9839 13.59873827152644
0 FENGYUN 1C DEB
1 38494U 99025ESD 13283.31291816  .00003456  00000-0  18578-2 0   823
2 38494 098.4335 321.0796 0526473 120.8281 305.7675 13.59883459152836
0 FENGYUN 1C DEB
1 38494U 99025ESD 13285.89980472  .00002894  00000-0  15599-2 0   837
2 38494 098.4335 323.3207 0526214 114.0206 010.1051 13.59894793153180
0 FENGYUN 1C DEB
1 38494U 99025ESD 13289.94478449  .00003804  00000-0  20463-2 0   842
2 38494 098.4319 326.8257 0525777 103.3695 012.9435 13.59922162153730
0 FENGYUN 1C DEB
1 38494U 99025ESD 13295.30459784  .00004031  00000-0  21848-2 0   852
2 38494 098.4325 331.4691 0523416 089.5043 333.1388 13.59947797154468
